1 40900U 15049B   20122.57973416  .00002265  00000-0  96444-4 0  9997
2 40900  97.4324 133.9421 0013647 142.0862 334.0487 15.23943870256050
1 40901U 15049C   20122.55038369  .00000957  00000-0  50037-4 0  9999
2 40901  97.4629 128.9142 0013472 169.0052 309.5339 15.18213574255450
1 40902U 15049D   20122.53175520  .00001327  00000-0  68101-4 0  9992
2 40902  97.4611 126.1886 0013519 166.5135 309.2763 15.18193581255423
1 40903U 15049E   20122.49209244  .00002287  00000-0  53807-4 0  9992
2 40903  97.2922 171.4015 0014954  76.1867  30.9548 15.42937998259233
1 40904U 15049F   20122.58854082  .00000513  00000-0  30396-4 0  9997
2 40904  97.4768 124.3835 0014314 179.4743 297.1204 15.15675877255148
1 40905U 15049G   20122.57129185  .00000189  00000-0  13788-4 0  9991
2 40905  97.4844 121.6203 0015567 176.8112 298.4395 15.14525290254983
1 40906U 15049H   20122.58792514  .00000653  00000-0  37386-4 0  9991
2 40906  97.4769 124.6304 0014907 170.3624 308.7183 15.16027136255157
1 40907U 15049J   20122.58834606  .00000805  00000-0  44968-4 0  9994
2 40907  97.4751 124.3318 0014331 166.9074 309.7587 15.16254670255178
1 40908U 15049K   20122.59023532  .00000451  00000-0  28391-4 0  9993
2 40908  97.4907 122.7495 0015814 177.8588 305.7216 15.14015687254904
1 40909U 15049L   20122.56208392  .00000962  00000-0  50072-4 0  9998
2 40909  97.4646 127.7060 0013872 158.2334 320.3086 15.18353194255419
1 40910U 15049M   20122.56323106  .00000913  00000-0  48331-4 0  9992
2 40910  97.4686 126.8092 0015124 157.7548 319.7254 15.17862871255227
1 40911U 15049N   20122.56983949  .00000469  00000-0  27723-4 0  9998
2 40911  97.4764 125.0054 0014171 167.9974 307.7917 15.16178166255062
1 40912U 15049P   20122.56626483  .00001170  00000-0  56991-4 0  9995
2 40912  97.4505 130.9118 0015942 137.2181 345.2734 15.20246297255597
1 40913U 15049Q   20122.14832790  .00003361  00000-0  57075-4 0  9998
2 40913  97.2436 174.6913 0067685  31.1786 329.3453 15.49631845259965
1 40914U 82118G   20121.98638148  .00001181  00000-0  41347-3 0  9994
2 40914  98.5287 316.6023 0012213 227.5044 132.5111 14.36920601210507
1 40915U 82118H   20121.26836910 +.00001242 +00000-0 +42090-3 0  9997
2 40915 098.5079 315.1135 0016019 255.6205 104.3204 14.38420767215509
1 40916U 82118J   20121.76264149 +.00001268 +00000-0 +42950-3 0  9995
2 40916 098.5058 314.9721 0015900 272.6008 087.3359 14.38424801215776
1 40918U 82118L   20122.20929317 +.00003871 +00000-0 +56847-3 0  9994
2 40918 098.4355 021.1923 0130518 355.9750 004.0394 14.70470193228028
1 40919U 82118M   20121.79184472 +.00001225 +00000-0 +41679-3 0  9991
2 40919 098.5102 316.0166 0015087 245.5216 114.4398 14.38274304206878
1 40920U 15050A   20122.26362792 +.00000028 +00000-0 +12872-3 0  9993
2 40920 082.4969 032.8550 0008425 179.5281 180.5808 12.42873543208874
1 40921U 15050B   20122.20796138 +.00000019 +00000-0 +64457-4 0  9990
2 40921 082.4922 032.2582 0012518 221.2995 138.7142 12.42870269208854
1 40922U 15050C   20121.91561548  .00000017  00000-0  49186-4 0  9993
2 40922  82.4927  32.5079 0014285 236.9317 123.0393 12.42879113208827
1 40923U 15050D   20122.16351207 +.00000021 +00000-0 +45805-4 0  9990
2 40923 082.4858 316.5720 0201823 297.0590 061.0042 12.80407280215156
1 40924U 85102G   20120.89838664 +.00000046 +00000-0 +00000-0 0  9992
2 40924 013.3006 336.6649 0029974 066.6883 194.7409 01.00315159044972
1 40925U 15051A   20122.54020517  .00000875  00000-0  29120-4 0  9991
2 40925  97.1417 141.7023 0014356  34.8052 117.5478 15.33634488257293
1 40926U 15051B   20122.44711737  .00021878  00000-0  23122-3 0  9993
2 40926  97.0883 173.9571 0004281 253.2291 221.0944 15.64191902259679
1 40927U 15051C   20122.71607503  .00018681  00000-0  21634-3 0  9993
2 40927  97.0920 172.8501 0004172 269.8433 184.1576 15.61867716259516
1 40928U 15051D   20122.57533524  .00003179  00000-0  75426-4 0  9994
2 40928  97.1133 151.5436 0010741   8.2520 143.3041 15.42392038258147
1 40930U 15052A   20122.00973945  .00000733  00000-0  13860-4 0  9998
2 40930   5.9977 320.4794 0008989 314.3534  45.5857 14.76310197248198
1 40931U 15052B   20120.02039352 -.00000221  00000-0 -12022-3 0  9996
2 40931   5.9971 327.9084 0013935 297.0073 299.9149 14.76631531247937
1 40932U 15052C   20122.03381541  .00001557  00000-0  12297-3 0  9995
2 40932   6.0080 295.1306 0013340   3.2211 356.7467 14.77966136248417
1 40933U 15052D   20121.52346859 +.00000893 +00000-0 +32866-4 0  9999
2 40933 006.0067 295.7696 0014276 004.5379 355.4878 14.78113300248363
1 40935U 15052F   20121.52527398  .00000857  00000-0  29749-4 0  9996
2 40935   6.0044 312.6626 0010709 322.5904  37.3479 14.77255578248193
1 40936U 15052G   20122.02150668  .00000780  00000-0  19917-4 0  9996
2 40936   6.0040 318.5089 0010913 309.8079  50.1088 14.76564782248206
1 40937U 15052H   20121.94162389  .00000790  00000-0  13920-4 0  9999
2 40937   5.9543 234.6879 0030154 199.4077 160.4899 14.80829651248915
1 40938U 15053A   20122.41255385 -.00000130  00000-0  00000+0 0  9992
2 40938  52.6904 284.7616 0048901 185.2911 354.4048  1.00283043 16922
1 40940U 15054A   20122.20591646 -.00000283 +00000-0 +00000-0 0  9996
2 40940 000.0113 270.0020 0001705 124.6881 039.2817 01.00271940016829
1 40941U 15054B   20122.37722330 -.00000229  00000-0  00000+0 0  9990
2 40941   0.0328 124.1622 0001630 279.9352 230.4475  1.00269384 16889
1 40942U 15054C   20122.31820562  .00000570  00000-0  12320-3 0  9991
2 40942   6.4143 119.3407 7131554 202.4752  96.0765  2.47447048 39928
1 40946U 15056A   20122.65797799 -.00000055  00000-0  00000+0 0  9996
2 40946   4.8942 328.5341 0000680 351.7907  23.4756  1.00272811 16842
1 40947U 15056B   20120.26358278 -.00000166 +00000-0 +00000-0 0  9991
2 40947 026.4879 073.7082 5888241 254.5527 036.4300 02.04873500034243
1 40958U 15057A   20122.18243126 +.00000005 +00000-0 +83644-5 0  9993
2 40958 097.8562 187.0860 0016877 304.4827 055.4787 14.73116802245552
1 40959U 15057B   20122.54450045  .00000008  00000-0  87601-5 0  9994
2 40959  97.8570 187.8951 0016808 304.8113  55.1519 14.73296527245639
1 40960U 15057C   20122.41538613  .00000023  00000-0  11048-4 0  9998
2 40960  97.8586 188.2217 0017020 306.1946  53.7686 14.73407141245639
1 40961U 15057D   20122.40800695  .00000068  00000-0  17982-4 0  9992
2 40961  97.8624 189.1236 0017077 305.7241  54.2375 14.73715864245678
1 40965U 15058B   20122.49650708  .00000079  00000-0  29310-4 0  9994
2 40965  64.7781 286.1276 0167860  91.4619 270.5720 14.74511060 34389
1 40966U 15058C   20122.41849650  .00000123  00000-0  34432-4 0  9994
2 40966  64.7781 284.9109 0166748  91.1804 270.8408 14.74808425 34377
1 40982U 15059A   20122.26476581 -.00000270 +00000-0 +00000-0 0  9999
2 40982 000.0270 115.3711 0001746 337.5432 004.0843 01.00271522016699
1 40984U 15060A   20122.40188267  .00000109  00000-0  00000+0 0  9999
2 40984   0.0033  76.0818 0002136 314.7175  23.6948  1.00274749 16679
1 40985U 15060B   20121.91321242 -.00000029 +00000-0 +00000-0 0  9990
2 40985 012.1032 169.1650 4777058 337.3414 007.2768 01.91629009031773
1 40986U 15060C   20122.13658472 -.00000122 +00000-0 -16770-5 0  9995
2 40986 049.2025 233.4092 6073282 355.6142 000.8221 03.81096897063168
1 40987U 08066D   20116.40697685 +.00000046 +00000-0 +00000-0 0  9993
2 40987 005.7374 057.8458 0154009 303.9106 054.5379 01.00178714039930
1 40988U 15061A   20122.51687396  .00000663  00000-0  30716-4 0  9990
2 40988  97.3130 247.3203 0005801 267.6678 221.1920 15.23430080251057
1 40989U 15034E   20122.09582476 -.00000154 +00000-0 +00000-0 0  9992
2 40989 001.7302 140.5259 0031529 191.1185 230.0871 01.01534133017614
1 40990U 15034F   20121.34399998 +.00000014 +00000-0 +00000-0 0  9990
2 40990 001.7017 141.3445 0075583 100.2126 261.1939 01.02651931017919
1 40992U 97051ABE 20122.32914531  .00001909  00000-0  38356-3 0  9998
2 40992  86.3042 131.3070 0021449 204.8332 212.9897 14.61014155434340
1 40993U 97051ABF 20120.86523498 +.00002845 +00000-0 +50874-3 0  9993
2 40993 086.3777 167.7932 0027795 112.9529 012.9991 14.66309622412602
1 40994U 97051ABG 20119.37296258  .00001882  00000-0  31421-3 0  9996
2 40994  86.3939 157.0623 0011992 131.0244 229.2010 14.69364055297969
1 40995U 97051ABH 20119.97934118 +.00001311 +00000-0 +35127-3 0  9991
2 40995 086.3956 200.9068 0039955 023.8583 100.2445 14.47053682210538
1 40996U 97051ABJ 20121.42784595  .00000716  00000-0  18836-3 0  9993
2 40996  86.3776 181.1486 0014272 163.5545 209.1430 14.47708827325659
1 40997U 97051ABK 20121.28613484  .00010867  00000-0  81280-3 0  9997
2 40997  86.3533 122.0748 0012270 115.0723 245.1786 15.02595259470292
1 40998U 97051ABL 20121.53209584  .00000241  00000-0  73954-4 0  9993
2 40998  86.3921 201.9965 0007725   5.7311  58.7050 14.37488766775795
1 40999U 99025EXD 20120.81196585  .00000431  00000-0  31632-3 0  9990
2 40999  99.2859 133.7933 0063307 148.0064 212.4968 14.00432011527952
1 41000U 99025EXE 20118.18085046 +.00000774 +00000-0 +65944-3 0  9993
2 41000 097.5262 111.6229 0389366 140.1978 222.8431 13.59200744562960
1 41003U 99025EXH 20122.19510829 +.00001261 +00000-0 +46616-3 0  9991
2 41003 098.9931 267.8628 0140989 226.0840 132.8633 14.28935852228938
1 41005U 99025EXK 20117.35044810 +.00000179 +00000-0 +13584-3 0  9992
2 41005 098.9731 339.7680 0619490 246.7407 106.7366 13.38544297247877
1 41006U 99025EXL 20119.60186143  .00001017  00000-0  10074-2 0  9991
2 41006 102.3787  73.8182 0213081 126.9782 235.1069 13.72373285292235
1 41007U 99025EXM 20111.89198907  .00000351  00000-0  35562-3 0  9996
2 41007  99.9390   5.5104 0189837 348.0667  11.6016 13.76976707289612
1 41008U 99025EXN 20121.82991097 +.00000112 +00000-0 +91918-4 0  9995
2 41008 099.3494 352.5399 0522045 015.8789 345.8044 13.56118710286024
1 41009U 99025EXP 20121.76744884 +.00000773 +00000-0 +38413-3 0  9992
2 41009 099.2397 321.5012 0019979 243.6825 116.2298 14.20147682296993
1 41010U 99025EXQ 20121.68064081 +.00000567 +00000-0 +34101-3 0  9990
2 41010 099.2486 274.4597 0041397 055.7404 317.5726 14.10657952395618
